FALCON 9 R/B            
1 56175U 23052B   23113.25386001  .00033284  66315-6  13247-2 0  9997
2 56175  27.0554  88.9115 6980373 189.4832 142.7332  2.71009189   449
IMECE                   
1 56178U 23054A   23113.78618959  .00000690  00000+0  13475-3 0  9991
2 56178  98.2130   9.4866 0008250 178.0722 182.0523 14.66051252  1865
2023-054B               
1 56179U 23054B   23114.14090913  .00032189  00000+0  14467-2 0  9996
2 56179  97.4071   9.8406 0007672 219.2410 140.8271 15.21044558  1959
DEWASAT-2               
1 56180U 23054C   23114.13957944  .00051741  00000+0  22963-2 0  9998
2 56180  97.4135   9.8507 0009166 218.2485 141.8101 15.21347721  1945
KILICSAT                
1 56181U 23054D   23114.16767213  .00014606  00000+0  65416-3 0  9990
2 56181  97.4098   9.8733 0008812 213.6915 301.0111 15.21323659  1955
LEMUR-2-ONREFLECTION    
1 56182U 23054E   23114.13903749  .00078058  00000+0  34400-2 0  9993
2 56182  97.4026   9.8369 0007707 207.8873 152.1951 15.21462697  1955
2023-054F               
1 56183U 23054F   23114.13919143  .00039590  00000+0  17607-2 0  9997
2 56183  97.4052   9.8391 0007500 202.7471 157.3434 15.21358116  1952
2023-054G               
1 56184U 23054G   23113.94156999  .00019329  00000+0  86147-3 0  9992
2 56184  97.4161   9.6603 0009897 217.4949 142.5598 15.21422767  1920
BRO-9                   
1 56185U 23054H   23114.13874190  .00074125  00000+0  32647-2 0  9995
2 56185  97.4055   9.8413 0008293 208.9638 151.1139 15.21499046  1957
2023-054J               
1 56186U 23054J   23114.13900325  .00036950  00000+0  16424-2 0  9995
2 56186  97.4110   9.8485 0009039 213.6914 146.3748 15.21381828  1958
2023-054K               
1 56187U 23054K   23113.94085856  .00022931  00000+0  10168-2 0  9990
2 56187  97.4034   9.6433 0007831 198.8574 161.2373 15.21577463  1928
CIRBE                   
1 56188U 23054L   23114.13758383  .00076085  00000+0  33284-2 0  9998
2 56188  97.4111   9.8513 0009118 207.6568 152.4184 15.21714417  1955
UMBRA-06                
1 56189U 23054M   23114.13737003  .00036151  00000+0  15935-2 0  9998
2 56189  97.4126   9.8538 0009503 207.4818 152.5916 15.21669936  1952
2023-054N               
1 56190U 23054N   23114.13703916  .00042034  00000+0  18467-2 0  9996
2 56190  97.4059   9.8426 0008987 197.4553 162.6376 15.21750621  1958
HAWK-7A                 
1 56191U 23054P   23114.13611990  .00022058  00000+0  96722-3 0  9992
2 56191  97.4094   9.8508 0010093 198.8115 161.2750 15.21949062  1959
ION SCV-010             
1 56192U 23054Q   23114.13640320  .00018653  00000+0  82357-3 0  9997
2 56192  97.4092   9.8504 0009722 199.2845 160.8024 15.21753053  1958
HAWK-7B                 
1 56193U 23054R   23114.13585726  .00023946  00000+0  10480-2 0  9994
2 56193  97.4076   9.8464 0010307 195.5778 164.5143 15.21996054  1954
2023-054S               
1 56194U 23054S   23113.93851243  .00023073  00000+0  10109-2 0  9991
2 56194  97.4097   9.6581 0009924 200.3883 159.6958 15.21968634  1920
2023-054T               
1 56195U 23054T   23113.93851269  .00011373  00000+0  50148-3 0  9998
2 56195  97.4084   9.6536 0010322 196.7241 163.3656 15.21906359  1920
2023-054U               
1 56196U 23054U   23113.93717786  .00019713  00000+0  85878-3 0  9998
2 56196  97.4088   9.6593 0010799 201.7499 158.3280 15.22187428  1924
VIGORIDE 6              
1 56197U 23054V   23113.93721608  .00012749  00000+0  55769-3 0  9995
2 56197  97.4081   9.6552 0011146 198.9031 161.1793 15.22140703  1925
2023-054W               
1 56198U 23054W   23113.34445121  .00032242  00000+0  14069-2 0  9991
2 56198  97.4075   9.0718 0009873 197.1096 162.9809 15.22036733  1837
2023-054X               
1 56199U 23054X   23114.13393030  .00042747  00000+0  18473-2 0  9995
2 56199  97.4095   9.8546 0011251 200.6843 159.3939 15.22288890  1950
HAWK-7C                 
1 56200U 23054Y   23114.13407146  .00022690  00000+0  98905-3 0  9996
2 56200  97.4076   9.8491 0011181 198.4452 161.6380 15.22134714  1954
2023-054Z               
1 56201U 23054Z   23114.13318883  .00043842  00000+0  18865-2 0  9994
2 56201  97.4082   9.8520 0011938 199.4460 160.6323 15.22421310  1952
2023-054AA              
1 56202U 23054AA  23114.13308704  .00042989  00000+0  18491-2 0  9992
2 56202  97.4097   9.8555 0012026 199.1783 160.9003 15.22437934  1958
2023-054AB              
1 56203U 23054AB  23114.13297104  .00043525  00000+0  18708-2 0  9992
2 56203  97.4061   9.8480 0012066 195.6670 164.4194 15.22458695  1954
2023-054AC              
1 56204U 23054AC  23114.13194134  .00038648  00000+0  16549-2 0  9993
2 56204  97.4128   9.8597 0012963 193.9475 166.1405 15.22606103  1951
2023-054AD              
1 56205U 23054AD  23113.93216310  .00014276  00000+0  60686-3 0  9995
2 56205  97.4118   9.6683 0014766 192.7375 167.3491 15.23046928  1923
LEMUR-2-ROMEO-N-LEO     
1 56206U 23054AE  23113.93358121  .00046290  00000+0  19584-2 0  9994
2 56206  97.4033   9.6521 0013032 191.4435 168.6508 15.22969927  1924
2023-054AF              
1 56207U 23054AF  23113.93325673  .00029995  00000+0  12729-2 0  9998
2 56207  97.4158   9.6729 0014095 198.0470 162.0268 15.22953847  1920
2023-054AG              
1 56208U 23054AG  23113.80215522  .00015356  00000+0  65757-3 0  9992
2 56208  97.4023   9.5230 0012914 187.6895 172.4146 15.22803692  1901
2023-054AH              
1 56209U 23054AH  23113.93367256  .00006749  00000+0  29162-3 0  9995
2 56209  97.4094   9.6620 0013131 189.0216 171.0787 15.22732634  1924
CONNECTA T2.1           
1 56210U 23054AJ  23114.13018483  .00026426  00000+0  11247-2 0  9993
2 56210  97.4046   9.8505 0013675 187.4244 172.6792 15.22887857  1957
INSPIRE-SAT 7           
1 56211U 23054AK  23114.12955355  .00078691  00000+0  32969-2 0  9996
2 56211  97.4139   9.8655 0014604 194.6357 165.4459 15.23113764  1955
ROSEYCUBESAT-1          
1 56212U 23054AL  23114.12889249  .00082135  00000+0  34258-2 0  9996
2 56212  97.4143   9.8673 0015080 194.1768 165.9047 15.23242406  1955
2023-054AM              
1 56213U 23054AM  23113.93176762  .00024996  00000+0  10543-2 0  9996
2 56213  97.4066   9.6611 0014389 188.7794 171.3193 15.23195451  1926
2023-054AN              
1 56214U 23054AN  23113.93143840  .00023431  00000+0  98717-3 0  9991
2 56214  97.4093   9.6653 0014863 190.3529 169.7404 15.23240653  1926
2023-054AP              
1 56215U 23054AP  23113.67571968  .00019002  00000+0  81864-3 0  9993
2 56215  97.4099   9.3969 0010998 184.3269 175.7874 15.22573808  1804
2023-054AQ              
1 56216U 23054AQ  23105.38529514 -.00000047  00000+0  00000+0 0  9992
2 56216  98.2100 359.9639 0004700 353.9000 352.2100 14.62024339   598
FENGYUN 3G              
1 56232U 23055A   23114.24693698 -.00000466  00000+0  00000+0 0  9996
2 56232  49.9975 155.5169 0006209 314.6925 163.0327 15.52216907  1272
CZ-4C R/B               
1 56233U 23055B   23114.16201691  .02250071  11769-4  66931-3 0  9994
2 56233  50.0626 152.8659 0095798  42.6058 318.2804 16.15159386  1304
2023-057A               
1 56308U 23057A   23113.89073090  .00000660  00000+0  00000+0 0  9995
2 56308   9.8888 298.4848 0022373 243.3226 116.4695 14.88265541   238
2023-057B               
1 56309U 23057B   23114.15094745  .00000686  00000+0  00000+0 0  9994
2 56309   9.9906 296.6466 0008637  15.1417 344.9141 14.94954240   266
2023-057C               
1 56310U 23057C   23114.15171292  .00000680  00000+0  00000+0 0  9993
2 56310   9.9856 296.6545 0006235   1.0564 358.9714 14.94298814   268
